"Country";"IPv4";"IPv6";"Latitude";"Longitude";"Sites";"Town";"Type";"id";"site"
"Cote d'Ivoire";"Yes";"No";5.316667;-4.033333;1;"Abidjan";"Global";"Abidjan-Coted'Ivoire";"http://l.root-servers.org/"
"Bahrain";"Yes";"No";26.266941;50.63839;1;"Al Muharraq";"Global";"AlMuharraq-Bahrain";"http://l.root-servers.org/"
"Jordan";"Yes";"No";31.9565783;35.9456951;1;"Amman";"Global";"Amman-Jordan";"http://l.root-servers.org/"
"United States";"Yes";"No";61.2180556;-149.9002778;1;"Anchorage";"Global";"Anchorage-UnitedStates";"http://l.root-servers.org/"
"Turkey";"Yes";"No";39.92077;32.85411;1;"Ankara";"Global";"Ankara-Turkey";"http://l.root-servers.org/"
"Samoa";"Yes";"Yes";-13.8506958;-171.7513551;1;"Apia";"Global";"Apia-Samoa";"http://l.root-servers.org/"
"United States";"Yes";"Yes";38.8816208;-77.0909809;1;"Arlington County";"Global";"ArlingtonCounty-UnitedStates";"http://l.root-servers.org/"
"Paraguay";"Yes";"Yes";-25.282197;-57.6351;1;"Asuncion";"Global";"Asuncion-Paraguay";"http://l.root-servers.org/"
"United States";"Yes";"Yes";33.7489954;-84.3879824;1;"Atlanta";"Global";"Atlanta-UnitedStates";"http://l.root-servers.org/"
"Azerbaijan";"Yes";"Yes";40.4092617;49.8670924;1;"Baku";"Global";"Baku-Azerbaijan";"http://l.root-servers.org/"
"Thailand";"Yes";"Yes";13.7563309;100.5017651;1;"Bangkok";"Global";"Bangkok-Thailand";"http://l.root-servers.org/"
"People's Republic of China";"Yes";"Yes";39.907313;116.403303;2;"Beijing";"Global";"Beirut-Lebanon";"http://l.root-servers.org/"
"Lebanon";"Yes";"No";33.8886289;35.4954794;1;"Beirut";"Global";"Belem-Brazil";"http://l.root-servers.org/"
"Brazil";"Yes";"No";-1.4557549;-48.4901799;1;"Belem";"Global";"Belgrade-Serbia";"http://l.root-servers.org/"
"Serbia";"Yes";"Yes";44.786568;20.4489216;1;"Belgrade";"Global";"BeloHorizonte-Brazil";"http://l.root-servers.org/"
"Brazil";"Yes";"Yes";-19.9166813;-43.9344931;1;"Belo Horizonte";"Global";"Blantyre-Malawi";"http://l.root-servers.org/"
"Malawi";"Yes";"Yes";-15.7666707;35.0167866;1;"Blantyre";"Global";"Bogota-Colombia";"http://l.root-servers.org/"
"Colombia";"Yes";"No";4.598056;-74.075833;1;"Bogota";"Global";"Brasilia-Brazil";"http://l.root-servers.org/"
"Cote d'Ivoire";"Yes";"No";7.683333;-5.016667;1;"Bouake";"Global";"Bratislava-Slovakia";"http://l.root-servers.org/"
"Brazil";"Yes";"No";-15.7942287;-47.8821658;1;"Brasilia";"Global";"Brisbane-Australia";"http://l.root-servers.org/"
"Slovakia";"Yes";"Yes";48.1485965;17.1077477;1;"Bratislava";"Global";"Brussels-Belgium";"http://l.root-servers.org/"
"Australia";"Yes";"Yes";-27.4710107;153.0234489;1;"Brisbane";"Global";"Callao-Peru";"http://l.root-servers.org/"
"Belgium";"Yes";"Yes";50.8503396;4.3517103;1;"Brussels";"Global";"Campinas-Brazil";"http://l.root-servers.org/"
"Peru";"Yes";"No";-12.0508491;-77.1259843;1;"Callao";"Global";"CapeTown-SouthAfrica";"http://l.root-servers.org/"
"Brazil";"Yes";"No";-22.9099384;-47.0626332;1;"Campinas";"Global";"Chicago-UnitedStates";"http://l.root-servers.org/"
"South Africa";"Yes";"Yes";-33.9248685;18.4240553;1;"Cape Town";"Global";"Christchurch-NewZealand";"http://l.root-servers.org/"
"United States";"Yes";"Yes";41.8781136;-87.6297982;2;"Chicago";"Global";"Cochabamba-Bolivia";"http://l.root-servers.org/"
"New Zealand";"Yes";"Yes";-43.5320544;172.6362254;1;"Christchurch";"Global";"Colombo-SriLanka";"http://l.root-servers.org/"
"Bolivia";"Yes";"Yes";-17.4139766;-66.1653224;1;"Cochabamba";"Global";"Copenhagen-Denmark";"http://l.root-servers.org/"
"Sri Lanka";"Yes";"Yes";6.9270786;79.861243;1;"Colombo";"Global";"Curitiba-Brazil";"http://l.root-servers.org/"
"Denmark";"Yes";"Yes";55.6760968;12.5683371;1;"Copenhagen";"Global";"Dammam-SaudiArabia";"http://l.root-servers.org/"
"Brazil";"Yes";"Yes";-25.4289541;-49.267137;1;"Curitiba";"Global";"DaresSalaam-Tanzania";"http://l.root-servers.org/"
"Saudi Arabia";"Yes";"No";26.3926665;49.9777136;1;"Dammam";"Global";"Denver-UnitedStates";"http://l.root-servers.org/"
"Tanzania";"Yes";"Yes";-6.8;39.283333;1;"Dar es Salaam";"Global";"DesMoines-UnitedStates";"http://l.root-servers.org/"
"United States";"Yes";"Yes";39.7392358;-104.990251;1;"Denver";"Global";"Dortmund-Germany";"http://l.root-servers.org/"
"United States";"Yes";"Yes";41.6005448;-93.6091064;1;"Des Moines";"Global";"Dubai-UnitedArabEmirates";"http://l.root-servers.org/"
"Germany";"Yes";"Yes";51.5135872;7.4652981;1;"Dortmund";"Global";"Dundee-UnitedKingdom";"http://l.root-servers.org/"
"United Arab Emirates";"Yes";"Yes";25.2048493;55.2707828;1;"Dubai";"Global";"Dusseldorf-Germany";"http://l.root-servers.org/"
"United Kingdom";"Yes";"No";56.462018;-2.970721;1;"Dundee";"Global";"ElPratdeLlobregat-Spain";"http://l.root-servers.org/"
"Germany";"Yes";"Yes";51.2277411;6.7734556;1;"Dusseldorf";"Global";"Ezeiza-Argentina";"http://l.root-servers.org/"
"Spain";"Yes";"Yes";41.3245953;2.0934902;1;"El Prat de Llobregat";"Global";"Florence-Italy";"http://l.root-servers.org/"
"Argentina";"Yes";"Yes";-34.8537327;-58.5228619;1;"Ezeiza";"Global";"Florianopolis-Brazil";"http://l.root-servers.org/"
"Italy";"Yes";"Yes";43.7695604;11.2558136;1;"Florence";"Global";"Fortaleza-Brazil";"http://l.root-servers.org/"
"Brazil";"Yes";"No";-27.5953778;-48.5480499;1;"Florianopolis";"Global";"Geneva-Switzerland";"http://l.root-servers.org/"
"Brazil";"Yes";"No";-3.7318616;-38.5266704;1;"Fortaleza";"Global";"Haarlemmermeer-Netherlands";"http://l.root-servers.org/"
"Switzerland";"Yes";"Yes";46.1983922;6.1422961;1;"Geneva";"Global";"Hagatna-Guam";"http://l.root-servers.org/"
"Netherlands";"Yes";"Yes";52.2904909;4.6695376;1;"Haarlemmermeer";"Global";"Hamburg-Germany";"http://l.root-servers.org/"
"Guam";"Yes";"No";13.4708908;144.7512782;1;"Hagatna";"Global";"Heraklion-Greece";"http://l.root-servers.org/"
"Germany";"Yes";"Yes";53.5510846;9.9936818;1;"Hamburg";"Global";"Honiara-SolomonIslands";"http://l.root-servers.org/"
"Finland";"Yes";"Yes";60.3210416;24.9528604;1;"Helsinki-Vantaa";"Global";"Honolulu-UnitedStates";"http://l.root-servers.org/"
"Greece";"Yes";"Yes";35.3387352;25.1442126;1;"Heraklion";"Global";"Incheon-SouthKorea";"http://l.root-servers.org/"
"Solomon Islands";"Yes";"No";-9.435092;159.951239;1;"Honiara";"Global";"Islamabad-Rawalpindi-Pakistan";"http://l.root-servers.org/"
"United States";"Yes";"Yes";21.3069444;-157.8583333;1;"Honolulu";"Global";"Jakarta-Indonesia";"http://l.root-servers.org/"
"South Korea";"Yes";"Yes";37.4562557;126.7052062;1;"Incheon";"Global";"Jeddah-SaudiArabia";"http://l.root-servers.org/"
"Pakistan";"Yes";"Yes";33.7293882;73.0931461;3;"Islamabad-Rawalpindi";"Global";"Johannesburg-SouthAfrica";"http://l.root-servers.org/"
"Indonesia";"Yes";"Yes";-6.2087634;106.845599;1;"Jakarta";"Global";"Kalamazoo-BattleCreek-UnitedStates";"http://l.root-servers.org/"
"Saudi Arabia";"Yes";"No";21.543333;39.172778;1;"Jeddah";"Global";"Kharkiv-Ukraine";"http://l.root-servers.org/"
"South Africa";"Yes";"Yes";-26.2041028;28.0473051;1;"Johannesburg";"Global";"Kiev-Ukraine";"http://l.root-servers.org/"
"United States";"Yes";"Yes";42.3211522;-85.1797142;1;"Kalamazoo-Battle Creek";"Global";"Kolkata-India";"http://l.root-servers.org/"
"Ukraine";"Yes";"Yes";49.9935;36.230383;1;"Kharkiv";"Global";"Kolonia-FederatedStatesofMicronesia";"http://l.root-servers.org/"
"Ukraine";"Yes";"Yes";50.4501;30.5234;1;"Kiev";"Global";"KuwaitCity-Kuwait";"http://l.root-servers.org/"
"India";"Yes";"No";22.572646;88.363895;1;"Kolkata";"Global";"Lahore-Pakistan";"http://l.root-servers.org/"
"Federated States of Micronesia";"Yes";"Yes";6.9599409;158.2117046;1;"Kolonia";"Global";"Lawrence-UnitedStates";"http://l.root-servers.org/"
"Kuwait";"Yes";"Yes";29.375859;47.9774052;1;"Kuwait City";"Global";"Leeds-Bradford-England";"http://l.root-servers.org/"
"Pakistan";"Yes";"Yes";31.5546061;74.3571581;2;"Lahore";"Global";"London-UnitedKingdom";"http://l.root-servers.org/"
"United States";"Yes";"Yes";38.9716689;-95.2352501;1;"Lawrence";"Global";"Londrina-Brazil";"http://l.root-servers.org/"
"England";"Yes";"Yes";53.7887315;-1.7875219;1;"Leeds-Bradford";"Global";"LosAngeles-UnitedStates";"http://l.root-servers.org/"
"United Kingdom";"Yes";"Yes";51.5073509;-0.1277583;1;"London";"Global";"Lyon-France";"http://l.root-servers.org/"
"Brazil";"Yes";"No";-23.3044524;-51.1695824;1;"Londrina";"Global";"Mahe-Seychelles";"http://l.root-servers.org/"
"United States";"Yes";"Yes";34.0522342;-118.2436849;2;"Los Angeles";"Global";"Maiquetia-Venezuela";"http://l.root-servers.org/"
"France";"Yes";"Yes";45.764043;4.835659;1;"Lyon";"Global";"Majuro-MarshallIslands";"http://l.root-servers.org/"
"Seychelles";"Yes";"Yes";-4.6826693;55.480396;1;"Mahe";"Global";"Malmo-Sweden";"http://l.root-servers.org/"
"Venezuela";"Yes";"No";10.595833;-66.977222;1;"Maiquetia";"Global";"Mandalay-Myanmar";"http://l.root-servers.org/"
"Marshall Islands";"Yes";"Yes";7.1164214;171.1857736;1;"Majuro";"Global";"Mangere-NewZealand";"http://l.root-servers.org/"
"Sweden";"Yes";"Yes";55.604981;13.003822;1;"Malmo";"Global";"Marseille-France";"http://l.root-servers.org/"
"Myanmar";"Yes";"Yes";21.9588282;96.0891032;1;"Mandalay";"Global";"Mascot-Australia";"http://l.root-servers.org/"
"New Zealand";"Yes";"Yes";-36.9686277;174.7936872;2;"Mangere";"Global";"Melbourne-Australia";"http://l.root-servers.org/"
"France";"Yes";"Yes";43.296482;5.36978;1;"Marseille";"Global";"MetroManila-Philippines";"http://l.root-servers.org/"
"Australia";"Yes";"Yes";-33.9297331;151.1951145;2;"Mascot";"Global";"Minsk-Belarus";"http://l.root-servers.org/"
"Australia";"Yes";"Yes";-37.814107;144.96328;3;"Melbourne";"Global";"Mississauga-Canada";"http://l.root-servers.org/"
"Philippines";"Yes";"No";14.6090537;121.0222565;1;"Metro Manila";"Global";"Monterrey-Mexico";"http://l.root-servers.org/"
"Belarus";"Yes";"Yes";53.9045398;27.5615244;1;"Minsk";"Global";"Montevideo-Uruguay";"http://l.root-servers.org/"
"Canada";"Yes";"Yes";43.5890452;-79.6441198;1;"Mississauga";"Global";"Moscow-RussianFederation";"http://l.root-servers.org/"
"Mexico";"Yes";"Yes";25.6866142;-100.3161126;2;"Monterrey";"Global";"Mumbai-India";"http://l.root-servers.org/"
"Uruguay";"Yes";"Yes";-34.9011127;-56.1645314;1;"Montevideo";"Global";"Muscat-Oman";"http://l.root-servers.org/"
"Russian Federation";"Yes";"Yes";55.755826;37.6173;3;"Moscow";"Global";"Nadi-Fiji";"http://l.root-servers.org/"
"India";"Yes";"Yes";19.0759837;72.8776559;1;"Mumbai";"Global";"Natal-Brazil";"http://l.root-servers.org/"
"Oman";"Yes";"Yes";23.61;58.54;2;"Muscat";"Global";"Noumea-NewCaledonia";"http://l.root-servers.org/"
"Fiji";"Yes";"No";-17.7765356;177.4356227;1;"Nadi";"Global";"Odessa-Ukraine";"http://l.root-servers.org/"
"Brazil";"Yes";"No";-5.7792569;-35.200916;1;"Natal";"Global";"Ottawa-Canada";"http://l.root-servers.org/"
"New Caledonia";"Yes";"Yes";-22.2758;166.458;1;"Noumea";"Global";"Papeete-FrenchPolynesia";"http://l.root-servers.org/"
"Ukraine";"Yes";"Yes";46.482526;30.7233095;1;"Odessa";"Global";"Paris-France";"http://l.root-servers.org/"
"Canada";"Yes";"Yes";45.4215296;-75.6971931;1;"Ottawa";"Global";"Paris-Orly-France";"http://l.root-servers.org/"
"French Polynesia";"Yes";"No";-17.535;-149.5696;1;"Papeete";"Global";"Perth-Australia";"http://l.root-servers.org/"
"France";"Yes";"Yes";48.856614;2.3522219;1;"Paris";"Global";"Plaisance-Mauritius";"http://l.root-servers.org/"
"France";"Yes";"Yes";48.7262433;2.3652472;1;"Paris-Orly";"Global";"PortMoresby-PapuaNewGuinea";"http://l.root-servers.org/"
"Australia";"Yes";"Yes";-31.9535132;115.8570471;1;"Perth";"Global";"Portland-UnitedStates";"http://l.root-servers.org/"
"Mauritius";"Yes";"Yes";-20.2427576;57.455655;1;"Plaisance";"Global";"Porto-Portugal";"http://l.root-servers.org/"
"Papua New Guinea";"Yes";"Yes";-9.4438004;147.1802671;1;"Port Moresby";"Global";"PortoAlegre-Brazil";"http://l.root-servers.org/"
"United States";"Yes";"Yes";45.5230622;-122.6764816;1;"Portland";"Global";"Prague-CzechRepublic";"http://l.root-servers.org/"
"Portugal";"Yes";"Yes";41.1579438;-8.6291053;1;"Porto";"Global";"PuntaCaucedo-DominicanRepublic";"http://l.root-servers.org/"
"Brazil";"Yes";"Yes";-30.0346471;-51.2176584;1;"Porto Alegre";"Global";"Quito-Ecuador";"http://l.root-servers.org/"
"Czech Republic";"Yes";"Yes";50.0755381;14.4378005;1;"Prague";"Global";"Rabat-Morocco";"http://l.root-servers.org/"
"Dominican Republic";"Yes";"No";18.4027778;-69.6305556;1;"Punta Caucedo";"Global";"Ramallah-Palestine";"http://l.root-servers.org/"
"Ecuador";"Yes";"Yes";-0.1806532;-78.4678382;1;"Quito";"Global";"Ramallah-Palestine";"http://l.root-servers.org/"
"Morocco";"Yes";"Yes";33.9715904;-6.8498129;1;"Rabat";"Global";"Reno-UnitedStates";"http://l.root-servers.org/"
"Palestine";"Yes";"Yes";31.9037641;35.2034184;2;"Ramallah";"Global";"Reston-UnitedStates";"http://l.root-servers.org/"
"United States";"Yes";"Yes";39.5296329;-119.8138027;1;"Reno";"Global";"RiodeJaneiro-Brazil";"http://l.root-servers.org/"
"United States";"Yes";"Yes";38.9586307;-77.3570028;2;"Reston";"Global";"Riyadh-SaudiArabia";"http://l.root-servers.org/"
"Brazil";"Yes";"Yes";-22.9068467;-43.1728965;2;"Rio de Janeiro";"Global";"Rochester-UnitedKingdom";"http://l.root-servers.org/"
"Saudi Arabia";"Yes";"No";24.633333;46.716667;1;"Riyadh";"Global";"Rostov-on-Don-RussianFederation";"http://l.root-servers.org/"
"United Kingdom";"Yes";"Yes";51.388;0.506721;1;"Rochester";"Global";"Salvador-Brazil";"http://l.root-servers.org/"
"Russian Federation";"Yes";"Yes";47.2357137;39.701505;1;"Rostov-on-Don";"Global";"SanJose-UnitedStates";"http://l.root-servers.org/"
"Brazil";"Yes";"Yes";-12.9730401;-38.502304;1;"Salvador";"Global";"SanJose-CostaRica";"http://l.root-servers.org/"
"United States";"Yes";"Yes";37.3382082;-121.8863286;1;"San Jose";"Global";"SanJuan-PuertoRico";"http://l.root-servers.org/"
"Costa Rica";"Yes";"Yes";9.9280694;-84.0907246;1;"San Jose";"Global";"SanSalvador-ElSalvador";"http://l.root-servers.org/"
"Puerto Rico";"Yes";"No";18.4663338;-66.1057217;1;"San Juan";"Global";"Santiago-Chile";"http://l.root-servers.org/"
"El Salvador";"Yes";"No";13.6929403;-89.2181911;1;"San Salvador";"Global";"SaoJosedosCampos-Brazil";"http://l.root-servers.org/"
"Yemen";"Yes";"Yes";15.3694451;44.1910066;1;"Sana'a";"Global";"SaoPaulo-Brazil";"http://l.root-servers.org/"
"Chile";"Yes";"Yes";-33.4691199;-70.641997;2;"Santiago";"Global";"SeaTac-UnitedStates";"http://l.root-servers.org/"
"Brazil";"Yes";"No";-23.223701;-45.9009074;1;"Sao Jose dos Campos";"Global";"Semey-Kazakhstan";"http://l.root-servers.org/"
"Brazil";"Yes";"Yes";-23.5505199;-46.6333094;1;"Sao Paulo";"Global";"Sofia-Bulgaria";"http://l.root-servers.org/"
"United States";"Yes";"No";47.4435903;-122.2960726;1;"SeaTac";"Global";"StDenis-Reunion";"http://l.root-servers.org/"
"Kazakhstan";"Yes";"Yes";50.4233463;80.250811;1;"Semey";"Global";"Stockholm-Sweden";"http://l.root-servers.org/"
"Bulgaria";"Yes";"Yes";42.6977082;23.3218675;1;"Sofia";"Global";"Suva-Nausori-Fiji";"http://l.root-servers.org/"
"Reunion";"Yes";"No";-20.882057;55.450675;1;"St Denis";"Global";"Tokyo-Japan";"http://l.root-servers.org/"
"Sweden";"Yes";"Yes";59.3293235;18.0685808;1;"Stockholm";"Global";"Toronto-Canada";"http://l.root-servers.org/"
"Fiji";"Yes";"No";-18.0424871;178.5531292;1;"Suva-Nausori";"Global";"Tunis-Carthage-Tunisia";"http://l.root-servers.org/"
"Japan";"Yes";"Yes";35.7090259;139.7319925;1;"Tokyo";"Global";"Uberlandia-Brazil";"http://l.root-servers.org/"
"Canada";"Yes";"Yes";43.653226;-79.3831843;1;"Toronto";"Global";"Ullensaker-Norway";"http://l.root-servers.org/"
"Tunisia";"Yes";"No";36.8529199;10.3217245;1;"Tunis-Carthage";"Global";"Vancouver-Canada";"http://l.root-servers.org/"
"Brazil";"Yes";"Yes";-18.9146078;-48.2753801;1;"Uberlandia";"Global";"Wilmington-UnitedStates";"http://l.root-servers.org/"
"Norway";"Yes";"Yes";60.1349136;11.1637891;1;"Ullensaker";"Global";"Winnipeg-Canada";"http://l.root-servers.org/"
"Canada";"Yes";"Yes";49.2827291;-123.1207375;1;"Vancouver";"Global";"Yangon-Myanmar";"http://l.root-servers.org/"
"United States";"Yes";"Yes";34.2257255;-77.9447102;1;"Wilmington";"Global";"Yekaterinburg-RussianFederation";"http://l.root-servers.org/"
"Canada";"Yes";"Yes";49.8997541;-97.1374937;1;"Winnipeg";"Global";"Yerevan-Armenia";"http://l.root-servers.org/"
"Myanmar";"Yes";"Yes";16.8660694;96.195132;1;"Yangon";"Global";"Yogyakarta-Indonesia";"http://l.root-servers.org/"
"Russian Federation";"Yes";"Yes";56.8389261;60.6057025;1;"Yekaterinburg";"Global";"People-RepublicofChina";"http://l.root-servers.org/"
"Armenia";"Yes";"Yes";40.183333;44.516667;1;"Yerevan";"Global";"CotedIvoire-Bouake";"http://l.root-servers.org/"
"Indonesia";"Yes";"Yes";-7.7955798;110.3694896;1;"Yogyakarta";"Global";"Sanaa-Yemen";"http://l.root-servers.org/"
